{"fetched_at":"2026-06-12T18:05:42Z","count":1804,"tles":[{"name":"SL-16 R/B","line1":"1 19120U 88039B   26162.62481028 -.00000078  00000+0 -13907-4 0  9999","line2":"2 19120  71.0143 229.9198 0022568 201.3504 158.6682 14.19629562971715","category":"Other"},{"name":"SL-8 R/B","line1":"1 15483U 85006B   26162.93806399  .00000169  00000+0  64550-4 0  9993","line2":"2 15483  74.0459  87.7233 0018691 335.7689  93.5101 14.37832722167572","category":"Other"},{"name":"COSMOS 1933","line1":"1 18958U 88020A   26162.96414799  .00002729  00000+0  13020-3 0  9993","line2":"2 18958  82.5115 157.6072 0002929 206.5770 153.5315 15.18680437 64536","category":"Other"},{"name":"SL-14 R/B","line1":"1 16792U 86046B   26162.96683189  .00000327  00000+0  34901-4 0  9998","line2":"2 16792  82.4816 351.1089 0021584 276.9811  82.8950 14.85667528140400","category":"Other"},{"name":"SL-14 R/B","line1":"1 18153U 87055B   26162.76780347  .00000341  00000+0  36290-4 0  9993","line2":"2 18153  82.4995 260.3376 0021982  64.5614 295.7873 14.85707362 83906","category":"Other"},{"name":"COSMOS 1867","line1":"1 18187U 87060A   26162.96351692 -.00000059  00000+0  15645-4 0  9993","line2":"2 18187  65.0116  42.6881 0016425 282.1269  77.7975 14.31515190 33438","category":"Other"},{"name":"SL-16 R/B","line1":"1 19650U 88102B   26162.84893917 -.00000222  00000+0 -87746-4 0  9999","line2":"2 19650  71.0004 313.3717 0016006 232.9308 127.0352 14.16165879940225","category":"Other"},{"name":"COSMOS 1833","line1":"1 17589U 87027A   26162.94063942  .00000314  00000+0  19336-3 0  9990","line2":"2 17589  70.9167 127.8963 0022669  63.8303 296.5146 14.13046044 23630","category":"Other"},{"name":"COSMOS 1975","line1":"1 19573U 88093A   26162.65806226  .00006547  00000+0  22921-3 0  9995","line2":"2 19573  82.5202  23.2641 0010738 190.8843 169.2166 15.29256651 33768","category":"Other"},{"name":"SL-14 R/B","line1":"1 17567U 87024B   26162.96600223  .00000337  00000+0  35539-4 0  9993","line2":"2 17567  82.5281   4.1586 0017061 311.9043  48.0717 14.86209747102136","category":"Other"},{"name":"SL-16 R/B","line1":"1 17590U 87027B   26162.92231045 -.00000068  00000+0 -98417-5 0  9998","line2":"2 17590  71.0034  77.9230 0006314 318.4833  41.5811 14.17172624 28691","category":"Other"},{"name":"COSMOS 1844","line1":"1 17973U 87041A   26162.52072506 -.00000169  00000+0 -62287-4 0  9997","line2":"2 17973  70.8977 196.2601 0033151 243.7540 116.0173 14.14569188 16856","category":"Other"},{"name":"AJISAI (EGS)","line1":"1 16908U 86061A   26162.91763310 -.00000078  00000+0  13549-3 0  9992","line2":"2 16908  50.0062 163.5990 0011244 167.2203 271.6737 12.44516805479734","category":"Other"},{"name":"DELTA 2 R/B(1)","line1":"1 20453U 90008B   26162.71644654  .00085127  00000+0  65005-3 0  9996","line2":"2 20453  35.6000 272.2355 0066127  62.2827 298.4602 15.67969753940849","category":"Other"},{"name":"SL-14 R/B","line1":"1 16882U 86055B   26162.75859132  .00000345  00000+0  36845-4 0  9997","line2":"2 16882  82.5209  38.2371 0019547  25.2886  43.1088 14.85719477133334","category":"Other"},{"name":"SL-14 R/B","line1":"1 18749U 88001B   26162.90413834  .00000353  00000+0  38003-4 0  9993","line2":"2 18749  82.5130 106.7436 0016535 288.6871  71.2550 14.85605785 56018","category":"Other"},{"name":"SL-14 R/B","line1":"1 19574U 88093B   26162.96338975  .00000376  00000+0  40329-4 0  9998","line2":"2 19574  82.5307 313.5493 0022186  86.5407  34.4349 14.85737795 15010","category":"Other"},{"name":"SL-3 R/B","line1":"1 19046U 88032B   26162.91365424  .00003712  00000+0  17044-3 0  9993","line2":"2 19046  97.5248 145.9595 0023634 264.8279  95.0259 15.20800900 66424","category":"Other"},{"name":"SL-14 R/B","line1":"1 15945U 85069B   26162.85144725  .00000388  00000+0  40989-4 0  9997","line2":"2 15945  82.5267 296.3842 0017458 237.9852 121.9669 14.86511450186825","category":"Other"},{"name":"SL-14 R/B","line1":"1 16496U 86006B   26162.53349309  .00000523  00000+0  52884-4 0  9999","line2":"2 16496  82.5261 171.4338 0075352 322.5279  37.0697 14.86939992163159","category":"Other"},{"name":"ARIANE 40 R/B","line1":"1 20443U 90005H   26162.76357702  .00000195  00000+0  75555-4 0  9996","line2":"2 20443  98.2959 220.5479 0008822 283.1258  76.8946 14.39924551906340","category":"Other"},{"name":"SL-14 R/B","line1":"1 20262U 89080C   26162.96253520  .00000315  00000+0  93682-4 0  9996","line2":"2 20262  82.5926 112.6640 1229032 329.3579  24.0931 12.50567603671933","category":"Other"},{"name":"SL-14 R/B","line1":"1 17912U 87038B   26162.60524731  .00000314  00000+0  33494-4 0  9995","line2":"2 17912  82.5012 208.3301 0018405 210.1729 149.8429 14.85442014 93177","category":"Other"},{"name":"SL-16 R/B","line1":"1 16182U 85097B   26162.84013639 -.00000230  00000+0 -91439-4 0  9994","line2":"2 16182  71.0037 302.3352 0005483 122.3765 348.0962 14.16611559100565","category":"Other"},{"name":"COSMOS 1743","line1":"1 16719U 86034A   26162.90941113  .00045886  00000+0  43938-3 0  9990","line2":"2 16719  82.5272 334.3429 0003757 296.1182  63.9691 15.66473988194961","category":"Other"},{"name":"COSMOS 1953","line1":"1 19210U 88050A   26162.78641844  .00007098  00000+0  24359-3 0  9992","line2":"2 19210  82.5085  63.4800 0011739 142.9494 217.2559 15.29902402 52167","category":"Other"},{"name":"DELTA 1 R/B","line1":"1 20323U 89089B   26162.56348469  .00000292  00000+0  80821-4 0  9991","line2":"2 20323  97.0638 355.0216 0068740 184.7105 175.3454 14.50727638909345","category":"Other"},{"name":"SL-8 R/B","line1":"1 19257U 88053B   26162.87183352  .00000147  00000+0  56013-4 0  9992","line2":"2 19257  74.0479 298.8553 0019167  96.1593  21.4456 14.38965458990142","category":"Other"},{"name":"INTERCOSMOS 24","line1":"1 20261U 89080A   26162.69516754  .00000816  00000+0  23096-3 0  9993","line2":"2 20261  82.6071  43.2182 1188403  74.6372 298.2671 12.59653024678633","category":"Other"},{"name":"SL-12 R/B(2)","line1":"1 15772U 85042D   26162.76005322 -.00000035  00000+0  55377-5 0  9993","line2":"2 15772  71.1082 248.9823 0036005 336.0039 158.9271 14.22004913127769","category":"Other"}]}