OBJECT_NAME,OBJECT_ID,EPOCH,MEAN_MOTION,ECCENTRICITY,INCLINATION,RA_OF_ASC_NODE,ARG_OF_PERICENTER,MEAN_ANOMALY,EPHEMERIS_TYPE,CLASSIFICATION_TYPE,NORAD_CAT_ID,ELEMENT_SET_NO,REV_AT_EPOCH,BSTAR,MEAN_MOTION_DOT,MEAN_MOTION_DDOT
SL-8 R/B,1985-006B,2026-06-11T22:30:48.728736,14.37832722,.00186914,74.0459,87.7233,335.7689,93.5101,0,U,15483,999,16757,.64549824E-4,.169E-5,0
SL-12 R/B(2),1985-042D,2026-06-11T18:14:28.598208,14.22004913,.00360056,71.1082,248.9823,336.0039,158.9271,0,U,15772,999,12776,.5537693E-5,-.35E-6,0
SL-14 R/B,1985-069B,2026-06-11T20:26:05.042400,14.86511450,.00174584,82.5267,296.3842,237.9852,121.9669,0,U,15945,999,18682,.40989423E-4,.388E-5,0
SL-16 R/B,1985-097B,2026-06-11T20:09:47.784096,14.16611559,.00054832,71.0037,302.3352,122.3765,348.0962,0,U,16182,999,10056,-.91438872E-4,-.23E-5,0
SL-14 R/B,1986-006B,2026-06-11T12:48:13.802976,14.86939992,.0075352,82.5261,171.4338,322.5279,37.0697,0,U,16496,999,16315,.52884E-4,.523E-5,0
COSMOS 1743,1986-034A,2026-06-11T21:49:33.121632,15.66473988,.00037572,82.5272,334.3429,296.1182,63.9691,0,U,16719,999,19496,.43938422E-3,.45886E-3,0
SL-14 R/B,1986-046B,2026-06-11T23:12:14.275296,14.85667528,.00215847,82.4816,351.1089,276.9811,82.8950,0,U,16792,999,14040,.34901074E-4,.327E-5,0
SL-14 R/B,1986-055B,2026-06-11T18:12:22.290048,14.85719477,.00195474,82.5209,38.2371,25.2886,43.1088,0,U,16882,999,13333,.3684459E-4,.345E-5,0
AJISAI (EGS),1986-061A,2026-06-11T22:01:23.499840,12.44516805,.00112443,50.0062,163.5990,167.2203,271.6737,0,U,16908,999,47973,.13548818E-3,-.78E-6,0
SL-14 R/B,1987-024B,2026-06-11T23:11:02.592672,14.86209747,.00170612,82.5281,4.1586,311.9043,48.0717,0,U,17567,999,10213,.35539039E-4,.337E-5,0
COSMOS 1833,1987-027A,2026-06-11T22:34:31.245888,14.13046044,.00226696,70.9167,127.8963,63.8303,296.5146,0,U,17589,999,2363,.19336462E-3,.314E-5,0
SL-16 R/B,1987-027B,2026-06-11T22:08:07.622880,14.17172624,.00063144,71.0034,77.9230,318.4833,41.5811,0,U,17590,999,2869,-.9841731E-5,-.68E-6,0
SL-14 R/B,1987-038B,2026-06-11T14:31:33.367584,14.85442014,.00184054,82.5012,208.3301,210.1729,149.8429,0,U,17912,999,9317,.33493558E-4,.314E-5,0
COSMOS 1844,1987-041A,2026-06-11T12:29:50.645184,14.14569188,.0033151,70.8977,196.2601,243.7540,116.0173,0,U,17973,999,1685,-.62287E-4,-.169E-5,0
SL-14 R/B,1987-055B,2026-06-11T18:25:38.219808,14.85707362,.00219828,82.4995,260.3376,64.5614,295.7873,0,U,18153,999,8390,.36290352E-4,.341E-5,0
COSMOS 1867,1987-060A,2026-06-11T23:07:27.861888,14.31515190,.00164258,65.0116,42.6881,282.1269,77.7975,0,U,18187,999,3343,.15644957E-4,-.59E-6,0
SL-14 R/B,1988-001B,2026-06-11T21:41:57.552576,14.85605785,.00165355,82.5130,106.7436,288.6871,71.2550,0,U,18749,999,5601,.38003486E-4,.353E-5,0
COSMOS 1933,1988-020A,2026-06-11T23:08:22.386336,15.18680437,.0002929,82.5115,157.6072,206.5770,153.5315,0,U,18958,999,6453,.13020005E-3,.2729E-4,0
SL-3 R/B,1988-032B,2026-06-11T21:55:39.726336,15.20800900,.00236343,97.5248,145.9595,264.8279,95.0259,0,U,19046,999,6642,.17044461E-3,.3712E-4,0
SL-16 R/B,1988-039B,2026-06-11T14:59:43.608192,14.19629562,.00225683,71.0143,229.9198,201.3504,158.6682,0,U,19120,999,97171,-.13906585E-4,-.78E-6,0
COSMOS 1953,1988-050A,2026-06-11T18:52:26.553216,15.29902402,.00117398,82.5085,63.4800,142.9494,217.2559,0,U,19210,999,5216,.24358649E-3,.7098E-4,0
SL-8 R/B,1988-053B,2026-06-11T20:55:26.416128,14.38965458,.00191676,74.0479,298.8553,96.1593,21.4456,0,U,19257,999,99014,.56013225E-4,.147E-5,0
COSMOS 1975,1988-093A,2026-06-11T15:47:36.579264,15.29256651,.00107384,82.5202,23.2641,190.8843,169.2166,0,U,19573,999,3376,.22920867E-3,.6547E-4,0
SL-14 R/B,1988-093B,2026-06-11T23:07:16.874400,14.85737795,.00221869,82.5307,313.5493,86.5407,34.4349,0,U,19574,999,1501,.40328899E-4,.376E-5,0
SL-16 R/B,1988-102B,2026-06-11T20:22:28.344288,14.16165879,.00160061,71.0004,313.3717,232.9308,127.0352,0,U,19650,999,94022,-.87746058E-4,-.222E-5,0
INTERCOSMOS 24,1989-080A,2026-06-11T16:41:02.475456,12.59653024,.1188403,82.6071,43.2182,74.6372,298.2671,0,U,20261,999,67863,.23095934E-3,.816E-5,0
SL-14 R/B,1989-080C,2026-06-11T23:06:03.041280,12.50567603,.12290329,82.5926,112.6640,329.3579,24.0931,0,U,20262,999,67193,.93682419E-4,.315E-5,0
DELTA 1 R/B,1989-089B,2026-06-11T13:31:25.077216,14.50727638,.006874,97.0638,355.0216,184.7105,175.3454,0,U,20323,999,90934,.80821E-4,.292E-5,0
ARIANE 40 R/B,1990-005H,2026-06-11T18:19:33.054528,14.39924551,.00088227,98.2959,220.5479,283.1258,76.8946,0,U,20443,999,90634,.75555056E-4,.195E-5,0
DELTA 2 R/B(1),1990-008B,2026-06-11T17:11:40.981056,15.67969753,.00661272,35.6000,272.2355,62.2827,298.4602,0,U,20453,999,94084,.65004718E-3,.85127E-3,0
